GLOBALSTAR M001         
1 25162U 98008A   25221.13910675 -.00000108  00000+0 -83970-4 0  9996
2 25162  52.0014 179.1020 0001747   8.1421   8.7741 12.38215292250385
GLOBALSTAR M004         
1 25163U 98008B   25221.49836949 -.00000050  00000+0  29994-3 0  9997
2 25163  51.9985 251.5144 0003142  53.3186 111.8101 12.63399994268525
GLOBALSTAR M002         
1 25164U 98008C   25221.34871678 -.00000067  00000+0  18463-3 0  9997
2 25164  52.0010 106.9111 0000730 262.4783  97.5954 11.61511305190316
GLOBALSTAR M003         
1 25165U 98008D   25221.17016610 -.00000189  00000+0 -10587-2 0  9990
2 25165  51.9995  21.7830 0008655  43.0195 128.9595 12.12067395239735
GLOBALSTAR M014         
1 25306U 98023A   25221.23756602 -.00000068  00000+0  18434-3 0  9998
2 25306  51.9858  29.2971 0001812  90.6384  79.8190 11.65481648197348
GLOBALSTAR M006         
1 25307U 98023B   25220.93623453 -.00000107  00000+0 -63628-3 0  9992
2 25307  51.9941  84.5038 0002539 190.1274 182.7491 11.58175400222942
GLOBALSTAR M015         
1 25308U 98023C   25221.19826128 -.00000089  00000+0 -35985-3 0  9990
2 25308  51.9796 184.7510 0012234 170.0148 202.6476 11.48860601200549
GLOBALSTAR M008         
1 25309U 98023D   25221.22404029 -.00000093  00000+0  22880-4 0  9992
2 25309  51.9979  44.2861 0001881 299.1213 232.0158 12.36071312244716
